TITAN 4B R/B            
1 26474U 00047B   25316.70939450  .00008617  00000+0  54855-3 0  9999
2 26474  67.9917   9.1763 0041717 179.7410 180.3768 15.08463441375261
ENVISAT                 
1 27386U 02009A   25316.86042882  .00000341  00000+0  12424-3 0  9995
2 27386  98.3552 268.3660 0001298  82.6107 304.1440 14.38982662242378
IDEFIX & ARIANE 42P R/B 
1 27422U 02021B   25316.58566308  .00000693  00000+0  28024-3 0  9996
2 27422  98.5739 251.6754 0011867 166.9376 193.2116 14.30917100227270
AQUA                    
1 27424U 02022A   25316.83879130  .00003150  00000+0  64201-3 0  9995
2 27424  98.3991 277.2413 0000813  54.3083 335.8456 14.61702699251660
CZ-4B R/B               
1 27432U 02024C   25316.15957006  .00000086  00000+0  67346-4 0  9999
2 27432  98.9047   5.0310 0050069 357.9635  66.3096 14.14518193212624
MIDORI II (ADEOS-II)    
1 27597U 02056A   25316.61137271  .00000668  00000+0  28102-3 0  9993
2 27597  98.7588 269.4174 0001351  34.2594 325.8674 14.29174817193571
H-2A R/B                
1 27601U 02056E   25316.87167891  .00000627  00000+0  23420-3 0  9991
2 27601  98.3021 276.8255 0070854 148.8483 231.7537 14.33643868197377
CZ-4B R/B               
1 28059U 03049C   25315.99111133  .00000658  00000+0  16296-3 0  9999
2 28059  98.6769 301.3972 0047328 230.1020 129.6010 14.54865093169480
CZ-2C R/B               
1 28222U 04012C   25316.60677978  .00063833  00000+0  10172-2 0  9995
2 28222  97.7478   6.7957 0019315  24.1977 336.0178 15.52825300186041
SL-16 R/B               
1 28353U 04021B   25316.85115662  .00000307  00000+0  18476-3 0  9997
2 28353  70.9977 117.6850 0006582 230.6456 129.4084 14.14572381106312
CZ-4B R/B               
1 28415U 04035C   25316.81138427  .00017733  00000+0  66587-3 0  9998
2 28415  97.3655 347.5632 0034581  25.7637 334.5314 15.26683151162064
CZ-2C R/B               
1 28480U 04046B   25316.73683510  .00000358  00000+0  14783-3 0  9997
2 28480  98.1961 233.9842 0140260 140.3389 220.8153 14.26920636 91820
